{
  "type": "FeatureCollection",
  "features": [
    {
      "type": "Feature",
      "properties": {
        "norad_id": 28054,
        "name": "DMSP 5D-3 F16 (USA 172)",
        "group": "weather",
        "lat": -80.83499960076904,
        "lon": 99.9018046671915,
        "alt_km": 849.7592396442506,
        "timestamp": "2025-12-07T20:38:13.722964+00:00",
        "meta_object_name": "DMSP 5D-3 F16 (USA 172)",
        "meta_object_id": "2003-048A",
        "meta_epoch": "2025-12-07T07:32:12.851232",
        "meta_mean_motion": 14.14421342,
        "meta_eccentricity": 0.00067178,
        "meta_inclination": 99.0049,
        "meta_ra_of_asc_node": 358.7283,
        "meta_arg_of_pericenter": 337.603,
        "meta_mean_anomaly": 32.9363,
        "meta_ephemeris_type": 0,
        "meta_classification_type": "U",
        "meta_norad_cat_id": 28054,
        "meta_element_set_no": 999,
        "meta_rev_at_epoch": 14236,
        "meta_bstar": 0.00016497167,
        "meta_mean_motion_dot": 2.7e-06,
        "meta_mean_motion_ddot": 0,
        "tle_line1": "1 28054U 03048A   25341.31403763  .00000270  00000+0  16497-3 0  9994",
        "tle_line2": "2 28054  99.0049 358.7283 0006717 337.6030  32.9363 14.14421342142369"
      },
      "geometry": {
        "type": "Point",
        "coordinates": [
          99.9018046671915,
          -80.83499960076904
        ]
      }
    },
    {
      "type": "Feature",
      "properties": {
        "norad_id": 28912,
        "name": "METEOSAT-9 (MSG-2)",
        "group": "weather",
        "lat": 2.474806337434631,
        "lon": 71.85822896549854,
        "alt_km": 35801.91295369672,
        "timestamp": "2025-12-07T20:38:13.723006+00:00",
        "meta_object_name": "METEOSAT-9 (MSG-2)",
        "meta_object_id": "2005-049B",
        "meta_epoch": "2025-12-06T20:43:46.094016",
        "meta_mean_motion": 1.0027315,
        "meta_eccentricity": 0.00039617,
        "meta_inclination": 8.926,
        "meta_ra_of_asc_node": 56.0299,
        "meta_arg_of_pericenter": 188.459,
        "meta_mean_anomaly": 187.9596,
        "meta_ephemeris_type": 0,
        "meta_classification_type": "U",
        "meta_norad_cat_id": 28912,
        "meta_element_set_no": 999,
        "meta_rev_at_epoch": 507,
        "meta_bstar": 0,
        "meta_mean_motion_dot": 1.25e-06,
        "meta_mean_motion_ddot": 0,
        "tle_line1": "1 28912U 05049B   25340.86372794  .00000125  00000+0  00000+0 0  9996",
        "tle_line2": "2 28912   8.9260  56.0299 0003961 188.4590 187.9596  1.00273150  5070"
      },
      "geometry": {
        "type": "Point",
        "coordinates": [
          71.85822896549854,
          2.474806337434631
        ]
      }
    },
    {
      "type": "Feature",
      "properties": {
        "norad_id": 29522,
        "name": "DMSP 5D-3 F17 (USA 191)",
        "group": "weather",
        "lat": -19.989449679155783,
        "lon": 164.14290042169455,
        "alt_km": 842.5792374524226,
        "timestamp": "2025-12-07T20:38:13.723023+00:00",
        "meta_object_name": "DMSP 5D-3 F17 (USA 191)",
        "meta_object_id": "2006-050A",
        "meta_epoch": "2025-12-07T06:06:58.268448",
        "meta_mean_motion": 14.14916111,
        "meta_eccentricity": 0.00092467,
        "meta_inclination": 98.7393,
        "meta_ra_of_asc_node": 346.7581,
        "meta_arg_of_pericenter": 241.7451,
        "meta_mean_anomaly": 118.2789,
        "meta_ephemeris_type": 0,
        "meta_classification_type": "U",
        "meta_norad_cat_id": 29522,
        "meta_element_set_no": 999,
        "meta_rev_at_epoch": 98527,
        "meta_bstar": 0.00018675577,
        "meta_mean_motion_dot": 3.18e-06,
        "meta_mean_motion_ddot": 0,
        "tle_line1": "1 29522U 06050A   25341.25484107  .00000318  00000+0  18676-3 0  9999",
        "tle_line2": "2 29522  98.7393 346.7581 0009246 241.7451 118.2789 14.14916111985276"
      },
      "geometry": {
        "type": "Point",
        "coordinates": [
          164.14290042169455,
          -19.989449679155783
        ]
      }
    },
    {
      "type": "Feature",
      "properties": {
        "norad_id": 32958,
        "name": "FENGYUN 3A",
        "group": "weather",
        "lat": -13.497580615553701,
        "lon": 99.39077478724127,
        "alt_km": 835.4507034137587,
        "timestamp": "2025-12-07T20:38:13.723037+00:00",
        "meta_object_name": "FENGYUN 3A",
        "meta_object_id": "2008-026A",
        "meta_epoch": "2025-12-07T06:11:39.369984",
        "meta_mean_motion": 14.19511949,
        "meta_eccentricity": 0.00081555,
        "meta_inclination": 98.669,
        "meta_ra_of_asc_node": 280.9005,
        "meta_arg_of_pericenter": 327.575,
        "meta_mean_anomaly": 32.4924,
        "meta_ephemeris_type": 0,
        "meta_classification_type": "U",
        "meta_norad_cat_id": 32958,
        "meta_element_set_no": 999,
        "meta_rev_at_epoch": 90817,
        "meta_bstar": 0.00013489445,
        "meta_mean_motion_dot": 2.41e-06,
        "meta_mean_motion_ddot": 0,
        "tle_line1": "1 32958U 08026A   25341.25809456  .00000241  00000+0  13489-3 0  9991",
        "tle_line2": "2 32958  98.6690 280.9005 0008155 327.5750  32.4924 14.19511949908172"
      },
      "geometry": {
        "type": "Point",
        "coordinates": [
          99.39077478724127,
          -13.497580615553701
        ]
      }
    },
    {
      "type": "Feature",
      "properties": {
        "norad_id": 35491,
        "name": "GOES 14",
        "group": "weather",
        "lat": -0.2821592586072275,
        "lon": -81.85459345931312,
        "alt_km": 35772.08605924565,
        "timestamp": "2025-12-07T20:38:13.723051+00:00",
        "meta_object_name": "GOES 14",
        "meta_object_id": "2009-033A",
        "meta_epoch": "2025-12-07T07:18:29.919744",
        "meta_mean_motion": 1.00272941,
        "meta_eccentricity": 0.00041472,
        "meta_inclination": 1.1847,
        "meta_ra_of_asc_node": 85.4709,
        "meta_arg_of_pericenter": 153.8136,
        "meta_mean_anomaly": 198.356,
        "meta_ephemeris_type": 0,
        "meta_classification_type": "U",
        "meta_norad_cat_id": 35491,
        "meta_element_set_no": 999,
        "meta_rev_at_epoch": 466,
        "meta_bstar": 0,
        "meta_mean_motion_dot": -6.4e-07,
        "meta_mean_motion_ddot": 0,
        "tle_line1": "1 35491U 09033A   25341.30451296 -.00000064  00000+0  00000+0 0  9991",
        "tle_line2": "2 35491   1.1847  85.4709 0004147 153.8136 198.3560  1.00272941  4665"
      },
      "geometry": {
        "type": "Point",
        "coordinates": [
          -81.85459345931312,
          -0.2821592586072275
        ]
      }
    },
    {
      "type": "Feature",
      "properties": {
        "norad_id": 35951,
        "name": "DMSP 5D-3 F18 (USA 210)",
        "group": "weather",
        "lat": 68.30442417214455,
        "lon": -64.86062553699328,
        "alt_km": 827.7139132715492,
        "timestamp": "2025-12-07T20:38:13.723063+00:00",
        "meta_object_name": "DMSP 5D-3 F18 (USA 210)",
        "meta_object_id": "2009-057A",
        "meta_epoch": "2025-12-07T05:01:52.985856",
        "meta_mean_motion": 14.14764117,
        "meta_eccentricity": 0.00121228,
        "meta_inclination": 98.8828,
        "meta_ra_of_asc_node": 317.6383,
        "meta_arg_of_pericenter": 77.1226,
        "meta_mean_anomaly": 283.1301,
        "meta_ephemeris_type": 0,
        "meta_classification_type": "U",
        "meta_norad_cat_id": 35951,
        "meta_element_set_no": 999,
        "meta_rev_at_epoch": 83244,
        "meta_bstar": 0.00025005636,
        "meta_mean_motion_dot": 4.38e-06,
        "meta_mean_motion_ddot": 0,
        "tle_line1": "1 35951U 09057A   25341.20964104  .00000438  00000+0  25006-3 0  9995",
        "tle_line2": "2 35951  98.8828 317.6383 0012122  77.1226 283.1301 14.14764117832447"
      },
      "geometry": {
        "type": "Point",
        "coordinates": [
          -64.86062553699328,
          68.30442417214455
        ]
      }
    },
    {
      "type": "Feature",
      "properties": {
        "norad_id": 36411,
        "name": "EWS-G2 (GOES 15)",
        "group": "weather",
        "lat": 0.04849920593983974,
        "lon": 87.86575832137375,
        "alt_km": 35812.111751258686,
        "timestamp": "2025-12-07T20:38:13.723076+00:00",
        "meta_object_name": "EWS-G2 (GOES 15)",
        "meta_object_id": "2010-008A",
        "meta_epoch": "2025-12-07T05:22:02.477856",
        "meta_mean_motion": 1.00268273,
        "meta_eccentricity": 0.00060089,
        "meta_inclination": 0.7997,
        "meta_ra_of_asc_node": 86.0673,
        "meta_arg_of_pericenter": 172.1046,
        "meta_mean_anomaly": 320.0453,
        "meta_ephemeris_type": 0,
        "meta_classification_type": "U",
        "meta_norad_cat_id": 36411,
        "meta_element_set_no": 999,
        "meta_rev_at_epoch": 5771,
        "meta_bstar": 0,
        "meta_mean_motion_dot": 4.2e-07,
        "meta_mean_motion_ddot": 0,
        "tle_line1": "1 36411U 10008A   25341.22363979  .00000042  00000+0  00000+0 0  9994",
        "tle_line2": "2 36411   0.7997  86.0673 0006008 172.1046 320.0453  1.00268273 57710"
      },
      "geometry": {
        "type": "Point",
        "coordinates": [
          87.86575832137375,
          0.04849920593983974
        ]
      }
    }
  ]
}